{
  "type": "FeatureCollection",
  "features": [
    {
      "type": "Feature",
      "properties": {
        "norad_id": 41948,
        "name": "CARTOSAT-2D",
        "group": "resource",
        "lat": -64.08632620664287,
        "lon": 65.81786757481198,
        "alt_km": 518.1811556426746,
        "timestamp": "2025-12-18T19:29:52.200571+00:00",
        "meta_object_name": "CARTOSAT-2D",
        "meta_object_id": "2017-008A",
        "meta_epoch": "2025-12-18T07:08:20.202720",
        "meta_mean_motion": 15.19315271,
        "meta_eccentricity": 0.00050898,
        "meta_inclination": 97.4389,
        "meta_ra_of_asc_node": 49.7108,
        "meta_arg_of_pericenter": 146.2571,
        "meta_mean_anomaly": 213.8989,
        "meta_ephemeris_type": 0,
        "meta_classification_type": "U",
        "meta_norad_cat_id": 41948,
        "meta_element_set_no": 999,
        "meta_rev_at_epoch": 49011,
        "meta_bstar": 0.00023147893,
        "meta_mean_motion_dot": 4.821e-05,
        "meta_mean_motion_ddot": 0,
        "tle_line1": "1 41948U 17008A   25352.29745605  .00004821  00000+0  23148-3 0  9992",
        "tle_line2": "2 41948  97.4389  49.7108 0005089 146.2571 213.8989 15.19315271490115"
      },
      "geometry": {
        "type": "Point",
        "coordinates": [
          65.81786757481198,
          -64.08632620664287
        ]
      }
    },
    {
      "type": "Feature",
      "properties": {
        "norad_id": 42063,
        "name": "SENTINEL-2B",
        "group": "resource",
        "lat": 52.784643905919765,
        "lon": -103.37199323557087,
        "alt_km": 783.3448033469904,
        "timestamp": "2025-12-18T19:29:52.200581+00:00",
        "meta_object_name": "SENTINEL-2B",
        "meta_object_id": "2017-013A",
        "meta_epoch": "2025-12-18T07:09:41.317632",
        "meta_mean_motion": 14.30818592,
        "meta_eccentricity": 0.00011484,
        "meta_inclination": 98.5715,
        "meta_ra_of_asc_node": 64.6666,
        "meta_arg_of_pericenter": 93.6288,
        "meta_mean_anomaly": 266.5027,
        "meta_ephemeris_type": 0,
        "meta_classification_type": "U",
        "meta_norad_cat_id": 42063,
        "meta_element_set_no": 999,
        "meta_rev_at_epoch": 45877,
        "meta_bstar": 8.693306e-05,
        "meta_mean_motion_dot": 1.84e-06,
        "meta_mean_motion_ddot": 0,
        "tle_line1": "1 42063U 17013A   25352.29839488  .00000184  00000+0  86933-4 0  9990",
        "tle_line2": "2 42063  98.5715  64.6666 0001148  93.6288 266.5027 14.30818592458776"
      },
      "geometry": {
        "type": "Point",
        "coordinates": [
          -103.37199323557087,
          52.784643905919765
        ]
      }
    },
    {
      "type": "Feature",
      "properties": {
        "norad_id": 42767,
        "name": "CARTOSAT-2E",
        "group": "resource",
        "lat": -24.317899430957272,
        "lon": -133.07211073174477,
        "alt_km": 512.0607827410513,
        "timestamp": "2025-12-18T19:29:52.200590+00:00",
        "meta_object_name": "CARTOSAT-2E",
        "meta_object_id": "2017-036C",
        "meta_epoch": "2025-12-18T07:32:08.138976",
        "meta_mean_motion": 15.19252944,
        "meta_eccentricity": 0.00024089,
        "meta_inclination": 97.4552,
        "meta_ra_of_asc_node": 49.8284,
        "meta_arg_of_pericenter": 211.9764,
        "meta_mean_anomaly": 148.1325,
        "meta_ephemeris_type": 0,
        "meta_classification_type": "U",
        "meta_norad_cat_id": 42767,
        "meta_element_set_no": 999,
        "meta_rev_at_epoch": 47068,
        "meta_bstar": 0.00021830463,
        "meta_mean_motion_dot": 4.533e-05,
        "meta_mean_motion_ddot": 0,
        "tle_line1": "1 42767U 17036C   25352.31398309  .00004533  00000+0  21830-3 0  9997",
        "tle_line2": "2 42767  97.4552  49.8284 0002408 211.9764 148.1325 15.19252944470680"
      },
      "geometry": {
        "type": "Point",
        "coordinates": [
          -133.07211073174477,
          -24.317899430957272
        ]
      }
    },
    {
      "type": "Feature",
      "properties": {
        "norad_id": 42920,
        "name": "FORMOSAT-5",
        "group": "resource",
        "lat": -26.553565384966355,
        "lon": -117.14544090083207,
        "alt_km": 726.9662723625415,
        "timestamp": "2025-12-18T19:29:52.200600+00:00",
        "meta_object_name": "FORMOSAT-5",
        "meta_object_id": "2017-049A",
        "meta_epoch": "2025-12-18T05:18:16.541856",
        "meta_mean_motion": 14.50763886,
        "meta_eccentricity": 0.00098605,
        "meta_inclination": 98.2448,
        "meta_ra_of_asc_node": 66.4306,
        "meta_arg_of_pericenter": 282.9943,
        "meta_mean_anomaly": 77.015,
        "meta_ephemeris_type": 0,
        "meta_classification_type": "U",
        "meta_norad_cat_id": 42920,
        "meta_element_set_no": 999,
        "meta_rev_at_epoch": 44043,
        "meta_bstar": 5.8027812e-05,
        "meta_mean_motion_dot": 1.85e-06,
        "meta_mean_motion_ddot": 0,
        "tle_line1": "1 42920U 17049A   25352.22102479  .00000185  00000+0  58028-4 0  9992",
        "tle_line2": "2 42920  98.2448  66.4306 0009860 282.9943  77.0150 14.50763886440432"
      },
      "geometry": {
        "type": "Point",
        "coordinates": [
          -117.14544090083207,
          -26.553565384966355
        ]
      }
    },
    {
      "type": "Feature",
      "properties": {
        "norad_id": 42969,
        "name": "SENTINEL-5P",
        "group": "resource",
        "lat": -78.61286616578485,
        "lon": -18.546302780098124,
        "alt_km": 835.0115481499834,
        "timestamp": "2025-12-18T19:29:52.200611+00:00",
        "meta_object_name": "SENTINEL-5P",
        "meta_object_id": "2017-064A",
        "meta_epoch": "2025-12-18T06:21:13.586112",
        "meta_mean_motion": 14.19518903,
        "meta_eccentricity": 0.00010049,
        "meta_inclination": 98.7791,
        "meta_ra_of_asc_node": 290.8,
        "meta_arg_of_pericenter": 90.1116,
        "meta_mean_anomaly": 270.0175,
        "meta_ephemeris_type": 0,
        "meta_classification_type": "U",
        "meta_norad_cat_id": 42969,
        "meta_element_set_no": 999,
        "meta_rev_at_epoch": 42389,
        "meta_bstar": 4.1505039e-05,
        "meta_mean_motion_dot": 4.3e-07,
        "meta_mean_motion_ddot": 0,
        "tle_line1": "1 42969U 17064A   25352.26474058  .00000043  00000+0  41505-4 0  9996",
        "tle_line2": "2 42969  98.7791 290.8000 0001004  90.1116 270.0175 14.19518903423894"
      },
      "geometry": {
        "type": "Point",
        "coordinates": [
          -18.546302780098124,
          -78.61286616578485
        ]
      }
    },
    {
      "type": "Feature",
      "properties": {
        "norad_id": 42987,
        "name": "SKYSAT-C11",
        "group": "resource",
        "lat": -53.569110384695776,
        "lon": 140.6167133935164,
        "alt_km": 431.22266215765376,
        "timestamp": "2025-12-18T19:29:52.200621+00:00",
        "meta_object_name": "SKYSAT-C11",
        "meta_object_id": "2017-068A",
        "meta_epoch": "2025-12-18T04:12:52.695360",
        "meta_mean_motion": 15.47673714,
        "meta_eccentricity": 0.00011655,
        "meta_inclination": 97.4139,
        "meta_ra_of_asc_node": 129.8026,
        "meta_arg_of_pericenter": 100.9043,
        "meta_mean_anomaly": 259.2338,
        "meta_ephemeris_type": 0,
        "meta_classification_type": "U",
        "meta_norad_cat_id": 42987,
        "meta_element_set_no": 999,
        "meta_rev_at_epoch": 45515,
        "meta_bstar": 0.00038996641,
        "meta_mean_motion_dot": 0.00020081,
        "meta_mean_motion_ddot": 0,
        "tle_line1": "1 42987U 17068A   25352.17560990  .00020081  00000+0  38997-3 0  9995",
        "tle_line2": "2 42987  97.4139 129.8026 0001165 100.9043 259.2338 15.47673714455150"
      },
      "geometry": {
        "type": "Point",
        "coordinates": [
          140.6167133935164,
          -53.569110384695776
        ]
      }
    },
    {
      "type": "Feature",
      "properties": {
        "norad_id": 42988,
        "name": "SKYSAT-C10",
        "group": "resource",
        "lat": 48.47177508563532,
        "lon": 115.21114301338955,
        "alt_km": 462.0193835283708,
        "timestamp": "2025-12-18T19:29:52.200631+00:00",
        "meta_object_name": "SKYSAT-C10",
        "meta_object_id": "2017-068B",
        "meta_epoch": "2025-12-18T05:10:41.111040",
        "meta_mean_motion": 15.32178093,
        "meta_eccentricity": 0.00054304,
        "meta_inclination": 97.4258,
        "meta_ra_of_asc_node": 123.0819,
        "meta_arg_of_pericenter": 88.316,
        "meta_mean_anomaly": 271.8704,
        "meta_ephemeris_type": 0,
        "meta_classification_type": "U",
        "meta_norad_cat_id": 42988,
        "meta_element_set_no": 999,
        "meta_rev_at_epoch": 45463,
        "meta_bstar": 0.00031254327,
        "meta_mean_motion_dot": 9.638e-05,
        "meta_mean_motion_ddot": 0,
        "tle_line1": "1 42988U 17068B   25352.21575360  .00009638  00000+0  31254-3 0  9992",
        "tle_line2": "2 42988  97.4258 123.0819 0005430  88.3160 271.8704 15.32178093454630"
      },
      "geometry": {
        "type": "Point",
        "coordinates": [
          115.21114301338955,
          48.47177508563532
        ]
      }
    }
  ]
}